{
  "norad_id": 63276,
  "name": "STARLINK-11623 [DTC]",
  "history": [
    {
      "epoch": "2026-03-28T04:18:04.930272",
      "apogee_km": 357.2699351284027,
      "perigee_km": 355.40744853107026,
      "latitude_deg": -30.03006480006222,
      "longitude_deg": 164.80547808017582,
      "semi_major_axis_km": 6734.475691829736,
      "eccentricity": 0.00013828,
      "inclination_deg": 43.0011,
      "raan_deg": 1.12,
      "arg_perigee_deg": 251.6436,
      "mean_anomaly_deg": 108.4281,
      "mean_motion_rev_day": 15.70894711
    }
  ]
}